0 FENGYUN 1C DEB
1 36722U 99025EAU 13281.90325353  .00225353  00000-0  73431-2 0  3039
2 36722 098.9442 148.0980 0045770 037.8598 019.1535 15.29886848260620
0 FENGYUN 1C DEB
1 36722U 99025EAU 13283.48395986  .00196136  00000-0  63044-2 0  3049
2 36722 098.9439 150.0000 0045125 032.8652 086.5537 15.30470985260861
0 FENGYUN 1C DEB
1 36722U 99025EAU 13283.86493291  .00171868  00000-0  55196-2 0  3054
2 36722 098.9439 150.4581 0045212 031.8046 025.4668 15.30592938260929
0 FENGYUN 1C DEB
1 36722U 99025EAU 13285.82675034  .00158504  00000-0  50201-2 0  3064
2 36722 098.9440 152.8201 0044515 025.4734 036.9262 15.31121903261226
0 FENGYUN 1C DEB
1 36722U 99025EAU 13286.42650697  .00147818  00000-0  46639-2 0  3076
2 36722 098.9431 153.5440 0044340 023.7835 102.6806 15.31294168261317
0 FENGYUN 1C DEB
1 36722U 99025EAU 13287.58525255  .00212891  00000-0  65980-2 0  3080
2 36722 098.9423 154.9392 0043861 020.4405 010.5581 15.31622234261498
0 FENGYUN 1C DEB
1 36722U 99025EAU 13288.12965590  .00261371  00000-0  79961-2 0  3093
2 36722 098.9420 155.5957 0043448 018.7256 132.4116 15.31859416261575
0 FENGYUN 1C DEB
1 36722U 99025EAU 13289.10978549  .00224057  00000-0  68026-2 0  3102
2 36722 098.9418 156.7774 0043084 016.0658 137.6164 15.32264595261721
0 FENGYUN 1C DEB
1 36722U 99025EAU 13289.43109030  .00218734  00000-0  66301-2 0  3119
2 36722 098.9420 157.1645 0042829 014.6224 110.4065 15.32348387261771
0 FENGYUN 1C DEB
1 36722U 99025EAU 13289.87546589  .00203055  00000-0  61392-2 0  3127
2 36722 098.9396 157.7017 0042515 013.2854 041.7656 15.32504600261840
0 FENGYUN 1C DEB
1 36722U 99025EAU 13290.47474689  .00229730  00000-0  68818-2 0  3135
2 36722 098.9393 158.4250 0042233 011.3927 108.1173 15.32702805261930
0 FENGYUN 1C DEB
1 36722U 99025EAU 13290.85493347  .00192956  00000-0  57754-2 0  3146
2 36722 098.9394 158.8832 0042201 010.4740 045.6343 15.32876458261995
0 FENGYUN 1C DEB
1 36722U 99025EAU 13292.43408712  .00196061  00000-0  57731-2 0  3151
2 36722 098.9388 160.7906 0041394 005.5351 121.1488 15.33413495262234
0 FENGYUN 1C DEB
1 36722U 99025EAU 13292.87781716  .00185833  00000-0  54470-2 0  3160
2 36722 098.9389 161.3273 0041311 004.4196 050.4311 15.33601311262306
0 FENGYUN 1C DEB
1 36722U 99025EAU 13293.47670434  .00207765  00000-0  60442-2 0  3177
2 36722 098.9368 162.0520 0040661 001.9479 117.5252 15.33777378262394
0 FENGYUN 1C DEB
1 36722U 99025EAU 13294.45575352  .00227854  00000-0  65455-2 0  3180
2 36722 098.9366 163.2333 0040231 359.6877 123.0986 15.34111792262541
0 FENGYUN 1C DEB
1 36722U 99025EAU 13295.87817133  .00259381  00000-0  72956-2 0  3198
2 36722 098.9370 164.9553 0039626 355.0661 060.2131 15.34673251262766
